ION SCV-017             
1 63230U 25052W   26068.71648816  .00006457  00000+0  24539-3 0  9998
2 63230  97.4016 324.7516 0023746  44.9875 315.3282 15.26881798 54851
STARLINK-34205          
1 64741U 25144T   26068.57258781  .00037490  00000+0  12715-2 0  9993
2 64741  53.1600 181.6051 0001140  84.7682 275.3449 15.30199271 39691
